METOP-B                 
1 38771U 12049A   26087.59131616  .00000113  00000+0  71679-4 0  9995
2 38771  98.6600 140.6651 0002023 190.5576 169.5560 14.21424374701811
SARAL                   
1 39086U 13009A   26087.59539547  .00000124  00000+0  61345-4 0  9998
2 39086  98.5564 275.1761 0002459 136.5404 223.5974 14.32834483684063
METOP-C                 
1 43689U 18087A   26087.61493958  .00000102  00000+0  66340-4 0  9997
2 43689  98.6726 148.6631 0001974  73.9057 286.2337 14.21503035383381
OTB-3-GAZELLE           
1 54023U 22127A   26087.53668743  .00000181  00000+0  67325-4 0  9999
2 54023  98.3924  80.4817 0014349  73.5245 286.7521 14.42643467182739
EOS-6 (OCEANSAT-3)      
1 54361U 22158A   26087.60398142  .00000359  00000+0  11081-3 0  9993
2 54361  98.3482 186.8911 0001329 144.2664 215.8618 14.46974433176180
KINEIS-1B               
1 60079U 24114A   26087.62773838  .00001223  00000+0  16676-3 0  9997
2 60079  97.9903 112.1827 0002729  32.4653 327.6726 14.80467241 95482
KINEIS-1C               
1 60081U 24114C   26087.59398579  .00001625  00000+0  21939-3 0  9995
2 60081  97.9922 111.9786 0002538  92.6982 267.4520 14.80465854 95456
KINEIS-1D               
1 60082U 24114D   26087.58602840  .00000782  00000+0  12063-3 0  9995
2 60082  97.9950 108.5856 0002911  94.1001 266.0542 14.76145914 95234
KINEIS-1E               
1 60083U 24114E   26086.59644626  .00000317  00000+0  48266-4 0  9993
2 60083  97.9711 111.0440 0002475  98.8882 261.2610 14.80538337 95313
KINEIS-1A               
1 60084U 24114F   26087.57656782  .00000362  00000+0  54167-4 0  9996
2 60084  97.9681 112.1405 0004208  53.5546 306.6053 14.80499373 95461
KINEIS-3C               
1 61220U 24172A   26087.19855136  .00002392  00000+0  38664-3 0  9993
2 61220  98.0345 177.9802 0003012  72.5440 287.6097 14.72266558 81154
KINEIS-3D               
1 61221U 24172B   26087.53166077  .00002391  00000+0  38637-3 0  9990
2 61221  98.0345 178.3207 0002280  77.5919 282.5544 14.72273935 81485
KINEIS-3E               
1 61222U 24172C   26087.58239539  .00001104  00000+0  18260-3 0  9991
2 61222  98.0347 178.3624 0001499  90.5568 269.5811 14.72271307 81491
KINEIS-3A               
1 61223U 24172D   26087.49785590  .00002373  00000+0  38323-3 0  9996
2 61223  98.0335 178.3736 0001808  32.3145 327.8173 14.72302106 80908
KINEIS-3B               
1 61224U 24172E   26087.20916996  .00002325  00000+0  37580-3 0  9993
2 61224  98.0333 178.1181 0001874  25.1213 335.0086 14.72287232 81433
KINEIS-5C               
1 62081U 24219A   26087.04871546 -.00001482  00000+0 -22664-3 0  9992
2 62081  97.9381 248.1018 0003782 122.8613 237.2960 14.72342174 71814
KINEIS-5D               
1 62082U 24219B   26087.55868130 -.00001042  00000+0 -15713-3 0  9993
2 62082  97.9312 248.5627 0003915 134.6565 225.4963 14.72331802 71890
