[{"OBJECT_NAME":"METOP-B","OBJECT_ID":"2012-049A","EPOCH":"2026-03-28T14:11:29.716224","MEAN_MOTION":14.21424374,"ECCENTRICITY":0.0002023,"INCLINATION":98.66,"RA_OF_ASC_NODE":140.6651,"ARG_OF_PERICENTER":190.5576,"MEAN_ANOMALY":169.556,"EPHEMERIS_TYPE":0,"CLASSIFICATION_TYPE":"U","NORAD_CAT_ID":38771,"ELEMENT_SET_NO":999,"REV_AT_EPOCH":70181,"BSTAR":7.1679342e-5,"MEAN_MOTION_DOT":1.13e-6,"MEAN_MOTION_DDOT":0},{"OBJECT_NAME":"SARAL","OBJECT_ID":"2013-009A","EPOCH":"2026-03-28T14:17:22.168608","MEAN_MOTION":14.32834483,"ECCENTRICITY":0.00024595,"INCLINATION":98.5564,"RA_OF_ASC_NODE":275.1761,"ARG_OF_PERICENTER":136.5404,"MEAN_ANOMALY":223.5974,"EPHEMERIS_TYPE":0,"CLASSIFICATION_TYPE":"U","NORAD_CAT_ID":39086,"ELEMENT_SET_NO":999,"REV_AT_EPOCH":68406,"BSTAR":6.1345357e-5,"MEAN_MOTION_DOT":1.24e-6,"MEAN_MOTION_DDOT":0},{"OBJECT_NAME":"METOP-C","OBJECT_ID":"2018-087A","EPOCH":"2026-03-28T14:45:30.779712","MEAN_MOTION":14.21503035,"ECCENTRICITY":0.00019749,"INCLINATION":98.6726,"RA_OF_ASC_NODE":148.6631,"ARG_OF_PERICENTER":73.9057,"MEAN_ANOMALY":286.2337,"EPHEMERIS_TYPE":0,"CLASSIFICATION_TYPE":"U","NORAD_CAT_ID":43689,"ELEMENT_SET_NO":999,"REV_AT_EPOCH":38338,"BSTAR":6.6340348e-5,"MEAN_MOTION_DOT":1.02e-6,"MEAN_MOTION_DDOT":0},{"OBJECT_NAME":"OTB-3-GAZELLE","OBJECT_ID":"2022-127A","EPOCH":"2026-03-28T12:52:49.793952","MEAN_MOTION":14.42643467,"ECCENTRICITY":0.00143498,"INCLINATION":98.3924,"RA_OF_ASC_NODE":80.4817,"ARG_OF_PERICENTER":73.5245,"MEAN_ANOMALY":286.7521,"EPHEMERIS_TYPE":0,"CLASSIFICATION_TYPE":"U","NORAD_CAT_ID":54023,"ELEMENT_SET_NO":999,"REV_AT_EPOCH":18273,"BSTAR":6.7324788e-5,"MEAN_MOTION_DOT":1.81e-6,"MEAN_MOTION_DDOT":0},{"OBJECT_NAME":"EOS-6 (OCEANSAT-3)","OBJECT_ID":"2022-158A","EPOCH":"2026-03-28T14:29:43.994688","MEAN_MOTION":14.46974433,"ECCENTRICITY":0.00013292,"INCLINATION":98.3482,"RA_OF_ASC_NODE":186.8911,"ARG_OF_PERICENTER":144.2664,"MEAN_ANOMALY":215.8618,"EPHEMERIS_TYPE":0,"CLASSIFICATION_TYPE":"U","NORAD_CAT_ID":54361,"ELEMENT_SET_NO":999,"REV_AT_EPOCH":17618,"BSTAR":0.00011080849,"MEAN_MOTION_DOT":3.59e-6,"MEAN_MOTION_DDOT":0},{"OBJECT_NAME":"KINEIS-1B","OBJECT_ID":"2024-114A","EPOCH":"2026-03-28T15:03:56.596032","MEAN_MOTION":14.80467241,"ECCENTRICITY":0.00027295,"INCLINATION":97.9903,"RA_OF_ASC_NODE":112.1827,"ARG_OF_PERICENTER":32.4653,"MEAN_ANOMALY":327.6726,"EPHEMERIS_TYPE":0,"CLASSIFICATION_TYPE":"U","NORAD_CAT_ID":60079,"ELEMENT_SET_NO":999,"REV_AT_EPOCH":9548,"BSTAR":0.00016675888,"MEAN_MOTION_DOT":1.223e-5,"MEAN_MOTION_DDOT":0},{"OBJECT_NAME":"KINEIS-1C","OBJECT_ID":"2024-114C","EPOCH":"2026-03-28T14:15:20.372256","MEAN_MOTION":14.80465854,"ECCENTRICITY":0.00025383,"INCLINATION":97.9922,"RA_OF_ASC_NODE":111.9786,"ARG_OF_PERICENTER":92.6982,"MEAN_ANOMALY":267.452,"EPHEMERIS_TYPE":0,"CLASSIFICATION_TYPE":"U","NORAD_CAT_ID":60081,"ELEMENT_SET_NO":999,"REV_AT_EPOCH":9545,"BSTAR":0.00021938554,"MEAN_MOTION_DOT":1.625e-5,"MEAN_MOTION_DDOT":0},{"OBJECT_NAME":"KINEIS-1D","OBJECT_ID":"2024-114D","EPOCH":"2026-03-28T14:03:52.853760","MEAN_MOTION":14.76145914,"ECCENTRICITY":0.00029117,"INCLINATION":97.995,"RA_OF_ASC_NODE":108.5856,"ARG_OF_PERICENTER":94.1001,"MEAN_ANOMALY":266.0542,"EPHEMERIS_TYPE":0,"CLASSIFICATION_TYPE":"U","NORAD_CAT_ID":60082,"ELEMENT_SET_NO":999,"REV_AT_EPOCH":9523,"BSTAR":0.00012062995,"MEAN_MOTION_DOT":7.82e-6,"MEAN_MOTION_DDOT":0},{"OBJECT_NAME":"KINEIS-1E","OBJECT_ID":"2024-114E","EPOCH":"2026-03-27T14:18:52.956864","MEAN_MOTION":14.80538337,"ECCENTRICITY":0.0002475,"INCLINATION":97.9711,"RA_OF_ASC_NODE":111.044,"ARG_OF_PERICENTER":98.8882,"MEAN_ANOMALY":261.261,"EPHEMERIS_TYPE":0,"CLASSIFICATION_TYPE":"U","NORAD_CAT_ID":60083,"ELEMENT_SET_NO":999,"REV_AT_EPOCH":9531,"BSTAR":4.8266e-5,"MEAN_MOTION_DOT":3.17e-6,"MEAN_MOTION_DDOT":0},{"OBJECT_NAME":"KINEIS-1A","OBJECT_ID":"2024-114F","EPOCH":"2026-03-28T13:50:15.459648","MEAN_MOTION":14.80499373,"ECCENTRICITY":0.00042082,"INCLINATION":97.9681,"RA_OF_ASC_NODE":112.1405,"ARG_OF_PERICENTER":53.5546,"MEAN_ANOMALY":306.6053,"EPHEMERIS_TYPE":0,"CLASSIFICATION_TYPE":"U","NORAD_CAT_ID":60084,"ELEMENT_SET_NO":999,"REV_AT_EPOCH":9546,"BSTAR":5.4167088e-5,"MEAN_MOTION_DOT":3.62e-6,"MEAN_MOTION_DDOT":0},{"OBJECT_NAME":"KINEIS-3C","OBJECT_ID":"2024-172A","EPOCH":"2026-03-28T04:45:54.837504","MEAN_MOTION":14.72266558,"ECCENTRICITY":0.00030123,"INCLINATION":98.0345,"RA_OF_ASC_NODE":177.9802,"ARG_OF_PERICENTER":72.544,"MEAN_ANOMALY":287.6097,"EPHEMERIS_TYPE":0,"CLASSIFICATION_TYPE":"U","NORAD_CAT_ID":61220,"ELEMENT_SET_NO":999,"REV_AT_EPOCH":8115,"BSTAR":0.00038664027,"MEAN_MOTION_DOT":2.392e-5,"MEAN_MOTION_DDOT":0},{"OBJECT_NAME":"KINEIS-3D","OBJECT_ID":"2024-172B","EPOCH":"2026-03-28T12:45:35.490528","MEAN_MOTION":14.72273935,"ECCENTRICITY":0.00022807,"INCLINATION":98.0345,"RA_OF_ASC_NODE":178.3207,"ARG_OF_PERICENTER":77.5919,"MEAN_ANOMALY":282.5544,"EPHEMERIS_TYPE":0,"CLASSIFICATION_TYPE":"U","NORAD_CAT_ID":61221,"ELEMENT_SET_NO":999,"REV_AT_EPOCH":8148,"BSTAR":0.00038636694,"MEAN_MOTION_DOT":2.391e-5,"MEAN_MOTION_DDOT":0},{"OBJECT_NAME":"KINEIS-3E","OBJECT_ID":"2024-172C","EPOCH":"2026-03-28T13:58:38.961696","MEAN_MOTION":14.72271307,"ECCENTRICITY":0.00014992,"INCLINATION":98.0347,"RA_OF_ASC_NODE":178.3624,"ARG_OF_PERICENTER":90.5568,"MEAN_ANOMALY":269.5811,"EPHEMERIS_TYPE":0,"CLASSIFICATION_TYPE":"U","NORAD_CAT_ID":61222,"ELEMENT_SET_NO":999,"REV_AT_EPOCH":8149,"BSTAR":0.00018259692,"MEAN_MOTION_DOT":1.104e-5,"MEAN_MOTION_DDOT":0},{"OBJECT_NAME":"KINEIS-3A","OBJECT_ID":"2024-172D","EPOCH":"2026-03-28T11:56:54.749760","MEAN_MOTION":14.72302106,"ECCENTRICITY":0.00018083,"INCLINATION":98.0335,"RA_OF_ASC_NODE":178.3736,"ARG_OF_PERICENTER":32.3145,"MEAN_ANOMALY":327.8173,"EPHEMERIS_TYPE":0,"CLASSIFICATION_TYPE":"U","NORAD_CAT_ID":61223,"ELEMENT_SET_NO":999,"REV_AT_EPOCH":8090,"BSTAR":0.00038322594,"MEAN_MOTION_DOT":2.373e-5,"MEAN_MOTION_DDOT":0},{"OBJECT_NAME":"KINEIS-3B","OBJECT_ID":"2024-172E","EPOCH":"2026-03-28T05:01:12.284544","MEAN_MOTION":14.72287232,"ECCENTRICITY":0.00018748,"INCLINATION":98.0333,"RA_OF_ASC_NODE":178.1181,"ARG_OF_PERICENTER":25.1213,"MEAN_ANOMALY":335.0086,"EPHEMERIS_TYPE":0,"CLASSIFICATION_TYPE":"U","NORAD_CAT_ID":61224,"ELEMENT_SET_NO":999,"REV_AT_EPOCH":8143,"BSTAR":0.0003758042,"MEAN_MOTION_DOT":2.325e-5,"MEAN_MOTION_DDOT":0},{"OBJECT_NAME":"KINEIS-5C","OBJECT_ID":"2024-219A","EPOCH":"2026-03-28T01:10:09.015744","MEAN_MOTION":14.72342174,"ECCENTRICITY":0.00037826,"INCLINATION":97.9381,"RA_OF_ASC_NODE":248.1018,"ARG_OF_PERICENTER":122.8613,"MEAN_ANOMALY":237.296,"EPHEMERIS_TYPE":0,"CLASSIFICATION_TYPE":"U","NORAD_CAT_ID":62081,"ELEMENT_SET_NO":999,"REV_AT_EPOCH":7181,"BSTAR":-0.00022663974,"MEAN_MOTION_DOT":-1.482e-5,"MEAN_MOTION_DDOT":0},{"OBJECT_NAME":"KINEIS-5D","OBJECT_ID":"2024-219B","EPOCH":"2026-03-28T13:24:30.064320","MEAN_MOTION":14.72331802,"ECCENTRICITY":0.00039153,"INCLINATION":97.9312,"RA_OF_ASC_NODE":248.5627,"ARG_OF_PERICENTER":134.6565,"MEAN_ANOMALY":225.4963,"EPHEMERIS_TYPE":0,"CLASSIFICATION_TYPE":"U","NORAD_CAT_ID":62082,"ELEMENT_SET_NO":999,"REV_AT_EPOCH":7189,"BSTAR":-0.0001571321,"MEAN_MOTION_DOT":-1.042e-5,"MEAN_MOTION_DDOT":0}]
